[{"OBJECT_NAME":"NUSAT-41 (C PAYNE-G)","OBJECT_ID":"2023-084N","EPOCH":"2026-03-09T21:55:54.837696","MEAN_MOTION":15.29680045,"ECCENTRICITY":0.00062175,"INCLINATION":97.5351,"RA_OF_ASC_NODE":204.1011,"ARG_OF_PERICENTER":322.2064,"MEAN_ANOMALY":37.8738,"EPHEMERIS_TYPE":0,"CLASSIFICATION_TYPE":"U","NORAD_CAT_ID":56944,"ELEMENT_SET_NO":999,"REV_AT_EPOCH":15260,"BSTAR":0.00059912824,"MEAN_MOTION_DOT":0.0001718,"MEAN_MOTION_DDOT":0},{"OBJECT_NAME":"STARLINK-31449","OBJECT_ID":"2024-031B","EPOCH":"2026-03-09T20:36:46.108800","MEAN_MOTION":15.30190507,"ECCENTRICITY":0.00012334,"INCLINATION":53.1608,"RA_OF_ASC_NODE":295.5906,"ARG_OF_PERICENTER":92.1734,"MEAN_ANOMALY":267.9408,"EPHEMERIS_TYPE":0,"CLASSIFICATION_TYPE":"U","NORAD_CAT_ID":58966,"ELEMENT_SET_NO":999,"REV_AT_EPOCH":11656,"BSTAR":3.3230852e-5,"MEAN_MOTION_DOT":6.25e-6,"MEAN_MOTION_DDOT":0}]
